0 COSMOS 2251 DEB
1 34439U 93036SG  13282.97177523  .00008105  00000-0  18640-2 0   212
2 34439 074.0624 099.2630 0158518 205.6825 277.7074 14.48071857244620
0 COSMOS 2251 DEB
1 34439U 93036SG  13285.51486873  .00007173  00000-0  16498-2 0   220
2 34439 074.0621 094.5072 0158418 200.3237 215.1059 14.48103705244990
0 COSMOS 2251 DEB
1 34439U 93036SG  13287.51825682  .00008492  00000-0  19512-2 0   233
2 34439 074.0618 090.7603 0158245 196.0975 219.1854 14.48129736245284
0 COSMOS 2251 DEB
1 34439U 93036SG  13289.52599897  .00010768  00000-0  24701-2 0   248
2 34439 074.0621 087.0051 0158059 191.8572 246.2052 14.48167219245574
0 COSMOS 2251 DEB
1 34439U 93036SG  13290.54720329  .00005769  00000-0  13198-2 0   252
2 34439 074.0633 085.0982 0158054 189.6134 170.2478 14.48177083245727
0 COSMOS 2251 DEB
1 34439U 93036SG  13291.81552920  .00010782  00000-0  24723-2 0   250
2 34439 074.0629 082.7228 0157823 187.0329 302.5865 14.48207242245901
0 COSMOS 2251 DEB
1 34439U 93036SG  13294.14968933  .00012148  00000-0  27827-2 0   261
2 34439 074.0635 078.3573 0157568 182.1151 232.0143 14.48252419246247
0 COSMOS 2251 DEB
1 34439U 93036SG  13296.15309346  .00012511  00000-0  28643-2 0   273
2 34439 074.0637 074.6103 0157313 177.8800 237.3171 14.48292761246532
